{
  "type": "FeatureCollection",
  "features": [
    {
      "type": "Feature",
      "properties": {
        "norad_id": 34056,
        "name": "COSMOS 2251 DEB",
        "group": "cosmos-2251-debris",
        "lat": 41.178499447372936,
        "lon": 82.42751824243994,
        "alt_km": 790.0985025899063,
        "timestamp": "2025-12-17T10:52:54.745937+00:00",
        "meta_object_name": "COSMOS 2251 DEB",
        "meta_object_id": "1993-036JT",
        "meta_epoch": "2025-12-16T14:57:05.451264",
        "meta_mean_motion": 14.20572187,
        "meta_eccentricity": 0.01239005,
        "meta_inclination": 74.0598,
        "meta_ra_of_asc_node": 69.4338,
        "meta_arg_of_pericenter": 116.2419,
        "meta_mean_anomaly": 3.2004,
        "meta_ephemeris_type": 0,
        "meta_classification_type": "U",
        "meta_norad_cat_id": 34056,
        "meta_element_set_no": 999,
        "meta_rev_at_epoch": 86466,
        "meta_bstar": 0.00058329476,
        "meta_mean_motion_dot": 1.331e-05,
        "meta_mean_motion_ddot": 0,
        "tle_line1": "1 34056U 93036JT  25350.62297976  .00001331  00000+0  58329-3 0  9999",
        "tle_line2": "2 34056  74.0598  69.4338 0123900 116.2419   3.2004 14.20572187864661"
      },
      "geometry": {
        "type": "Point",
        "coordinates": [
          82.42751824243994,
          41.178499447372936
        ]
      }
    },
    {
      "type": "Feature",
      "properties": {
        "norad_id": 34058,
        "name": "COSMOS 2251 DEB",
        "group": "cosmos-2251-debris",
        "lat": -3.7214316028939565,
        "lon": -8.453634455639882,
        "alt_km": 786.4105287346138,
        "timestamp": "2025-12-17T10:52:54.745948+00:00",
        "meta_object_name": "COSMOS 2251 DEB",
        "meta_object_id": "1993-036JV",
        "meta_epoch": "2025-12-16T22:11:51.454176",
        "meta_mean_motion": 13.5608274,
        "meta_eccentricity": 0.03777727,
        "meta_inclination": 73.9314,
        "meta_ra_of_asc_node": 171.3287,
        "meta_arg_of_pericenter": 165.7713,
        "meta_mean_anomaly": 317.4426,
        "meta_ephemeris_type": 0,
        "meta_classification_type": "U",
        "meta_norad_cat_id": 34058,
        "meta_element_set_no": 999,
        "meta_rev_at_epoch": 83199,
        "meta_bstar": 0.0006582922,
        "meta_mean_motion_dot": 7.1e-06,
        "meta_mean_motion_ddot": 0,
        "tle_line1": "1 34058U 93036JV  25350.92490109  .00000710  00000+0  65829-3 0  9990",
        "tle_line2": "2 34058  73.9314 171.3287 0377772 165.7713 317.4426 13.56082740831994"
      },
      "geometry": {
        "type": "Point",
        "coordinates": [
          -8.453634455639882,
          -3.7214316028939565
        ]
      }
    },
    {
      "type": "Feature",
      "properties": {
        "norad_id": 34059,
        "name": "COSMOS 2251 DEB",
        "group": "cosmos-2251-debris",
        "lat": -61.06307667538383,
        "lon": 28.56477662621121,
        "alt_km": 709.7424206949327,
        "timestamp": "2025-12-17T10:52:54.745958+00:00",
        "meta_object_name": "COSMOS 2251 DEB",
        "meta_object_id": "1993-036JW",
        "meta_epoch": "2025-12-16T22:56:14.080128",
        "meta_mean_motion": 14.52972295,
        "meta_eccentricity": 0.00185557,
        "meta_inclination": 74.0367,
        "meta_ra_of_asc_node": 178.323,
        "meta_arg_of_pericenter": 255.2342,
        "meta_mean_anomaly": 268.0711,
        "meta_ephemeris_type": 0,
        "meta_classification_type": "U",
        "meta_norad_cat_id": 34059,
        "meta_element_set_no": 999,
        "meta_rev_at_epoch": 88520,
        "meta_bstar": 0.00057702827,
        "meta_mean_motion_dot": 2.357e-05,
        "meta_mean_motion_ddot": 0,
        "tle_line1": "1 34059U 93036JW  25350.95571852  .00002357  00000+0  57703-3 0  9990",
        "tle_line2": "2 34059  74.0367 178.3230 0018555 255.2342 268.0711 14.52972295885205"
      },
      "geometry": {
        "type": "Point",
        "coordinates": [
          28.56477662621121,
          -61.06307667538383
        ]
      }
    },
    {
      "type": "Feature",
      "properties": {
        "norad_id": 34061,
        "name": "COSMOS 2251 DEB",
        "group": "cosmos-2251-debris",
        "lat": 18.2281604587879,
        "lon": -99.91492870666421,
        "alt_km": 747.4380302001337,
        "timestamp": "2025-12-17T10:52:54.745968+00:00",
        "meta_object_name": "COSMOS 2251 DEB",
        "meta_object_id": "1993-036JY",
        "meta_epoch": "2025-12-16T18:25:27.636672",
        "meta_mean_motion": 14.40366406,
        "meta_eccentricity": 0.00206552,
        "meta_inclination": 74.0391,
        "meta_ra_of_asc_node": 255.9439,
        "meta_arg_of_pericenter": 332.2192,
        "meta_mean_anomaly": 92.4008,
        "meta_ephemeris_type": 0,
        "meta_classification_type": "U",
        "meta_norad_cat_id": 34061,
        "meta_element_set_no": 999,
        "meta_rev_at_epoch": 88238,
        "meta_bstar": 0.00029066516,
        "meta_mean_motion_dot": 8.98e-06,
        "meta_mean_motion_ddot": 0,
        "tle_line1": "1 34061U 93036JY  25350.76768098  .00000898  00000+0  29067-3 0  9992",
        "tle_line2": "2 34061  74.0391 255.9439 0020655 332.2192  92.4008 14.40366406882383"
      },
      "geometry": {
        "type": "Point",
        "coordinates": [
          -99.91492870666421,
          18.2281604587879
        ]
      }
    },
    {
      "type": "Feature",
      "properties": {
        "norad_id": 34062,
        "name": "COSMOS 2251 DEB",
        "group": "cosmos-2251-debris",
        "lat": 64.39054590326833,
        "lon": 165.45951740974337,
        "alt_km": 664.1994982219012,
        "timestamp": "2025-12-17T10:52:54.745979+00:00",
        "meta_object_name": "COSMOS 2251 DEB",
        "meta_object_id": "1993-036JZ",
        "meta_epoch": "2025-12-16T20:31:57.200160",
        "meta_mean_motion": 14.7883287,
        "meta_eccentricity": 0.00741228,
        "meta_inclination": 74.0272,
        "meta_ra_of_asc_node": 129.9399,
        "meta_arg_of_pericenter": 208.1852,
        "meta_mean_anomaly": 280.4266,
        "meta_ephemeris_type": 0,
        "meta_classification_type": "U",
        "meta_norad_cat_id": 34062,
        "meta_element_set_no": 999,
        "meta_rev_at_epoch": 88656,
        "meta_bstar": 0.0021634887,
        "meta_mean_motion_dot": 0.00016681,
        "meta_mean_motion_ddot": 0,
        "tle_line1": "1 34062U 93036JZ  25350.85552315  .00016681  00000+0  21635-2 0  9995",
        "tle_line2": "2 34062  74.0272 129.9399 0074122 208.1852 280.4266 14.78832870886562"
      },
      "geometry": {
        "type": "Point",
        "coordinates": [
          165.45951740974337,
          64.39054590326833
        ]
      }
    },
    {
      "type": "Feature",
      "properties": {
        "norad_id": 34064,
        "name": "COSMOS 2251 DEB",
        "group": "cosmos-2251-debris",
        "lat": 25.188590355998894,
        "lon": -90.13720916227174,
        "alt_km": 741.2941419655826,
        "timestamp": "2025-12-17T10:52:54.745989+00:00",
        "meta_object_name": "COSMOS 2251 DEB",
        "meta_object_id": "1993-036KB",
        "meta_epoch": "2025-12-16T05:30:15.602400",
        "meta_mean_motion": 14.42351303,
        "meta_eccentricity": 0.00222339,
        "meta_inclination": 74.033,
        "meta_ra_of_asc_node": 264.3939,
        "meta_arg_of_pericenter": 330.4586,
        "meta_mean_anomaly": 182.353,
        "meta_ephemeris_type": 0,
        "meta_classification_type": "U",
        "meta_norad_cat_id": 34064,
        "meta_element_set_no": 999,
        "meta_rev_at_epoch": 88192,
        "meta_bstar": 0.00041447339,
        "meta_mean_motion_dot": 1.347e-05,
        "meta_mean_motion_ddot": 0,
        "tle_line1": "1 34064U 93036KB  25350.22934725  .00001347  00000+0  41447-3 0  9994",
        "tle_line2": "2 34064  74.0330 264.3939 0022233 330.4586 182.3530 14.42351303881929"
      },
      "geometry": {
        "type": "Point",
        "coordinates": [
          -90.13720916227174,
          25.188590355998894
        ]
      }
    },
    {
      "type": "Feature",
      "properties": {
        "norad_id": 34065,
        "name": "COSMOS 2251 DEB",
        "group": "cosmos-2251-debris",
        "lat": -31.91376399960965,
        "lon": -120.83044608623932,
        "alt_km": 759.4405101528328,
        "timestamp": "2025-12-17T10:52:54.745999+00:00",
        "meta_object_name": "COSMOS 2251 DEB",
        "meta_object_id": "1993-036KC",
        "meta_epoch": "2025-12-16T20:19:26.671872",
        "meta_mean_motion": 14.38067251,
        "meta_eccentricity": 0.00165488,
        "meta_inclination": 74.0354,
        "meta_ra_of_asc_node": 250.5559,
        "meta_arg_of_pericenter": 347.333,
        "meta_mean_anomaly": 80.4736,
        "meta_ephemeris_type": 0,
        "meta_classification_type": "U",
        "meta_norad_cat_id": 34065,
        "meta_element_set_no": 999,
        "meta_rev_at_epoch": 88264,
        "meta_bstar": 0.00014798021,
        "meta_mean_motion_dot": 4.22e-06,
        "meta_mean_motion_ddot": 0,
        "tle_line1": "1 34065U 93036KC  25350.84683648  .00000422  00000+0  14798-3 0  9990",
        "tle_line2": "2 34065  74.0354 250.5559 0016548 347.3330  80.4736 14.38067251882644"
      },
      "geometry": {
        "type": "Point",
        "coordinates": [
          -120.83044608623932,
          -31.91376399960965
        ]
      }
    }
  ]
}